IRIDIUM 39              
1 25042U 97069D   25060.61511507  .00001514  00000+0  39395-3 0  9995
2 25042  86.3859 257.2499 0016371 310.7635  49.2147 14.48946018433388
IRIDIUM 38              
1 25043U 97069E   25060.66335991  .00000897  00000+0  29075-3 0  9999
2 25043  86.3909 278.4170 0003952  89.3742 270.7908 14.37943192430500
IRIDIUM 42              
1 25077U 97077A   25060.67728905  .00000839  00000+0  28105-3 0  9996
2 25077  86.3921 284.4539 0002709  92.5730 267.5777 14.36193451425763
IRIDIUM 44              
1 25078U 97077B   25060.92169220  .00000978  00000+0  30419-3 0  9999
2 25078  86.3902 266.5400 0003272  57.0752 303.0761 14.40068621428269
IRIDIUM 45              
1 25104U 97082A   25060.61253653  .00023681  00000+0  96175-3 0  9992
2 25104  86.3559  99.9516 0128415  14.8925 345.6040 15.17085018435953
IRIDIUM 24              
1 25105U 97082B   25060.68524105  .00001061  00000+0  31788-3 0  9990
2 25105  86.3915 125.9106 0013514  77.0827 283.1882 14.41919460427729
IRIDIUM 51              
1 25262U 98018A   25060.55889331  .00040583  00000+0  11632-2 0  9992
2 25262  86.3841 108.7734 0100196 301.7824  57.3694 15.30767571430734
IRIDIUM 57              
1 25273U 98019B   25060.84998523  .00000959  00000+0  32502-3 0  9994
2 25273  86.4024 190.1848 0002094  93.5652 266.5784 14.35761131409385
